start=new Date('2022-01-18T00:00:00.000Z').valueOf();
sats=[{"REV_AT_EPOCH":"7834","TLE_LINE1":"1 46136U 20057V   22017.89115266 -.00002757  00000-0 -16630-3 0  9996","LAUNCH_DATE":"2020-08-18","EPHEMERIS_TYPE":"0","MEAN_ELEMENT_THEORY":"SGP4","OBJECT_ID":"2020-057V","MEAN_MOTION_DDOT":"0.0000000000000","MEAN_MOTION_DOT":"-0.00002757","SITE":"AFETR","PERIOD":"95.593","INCLINATION":"53.0537","ELEMENT_SET_NO":"999","TLE_LINE2":"2 46136  53.0537 253.3478 0001953  66.1026 294.0167 15.06383864 78341","GP_ID":"194085604","APOAPSIS":"548.616","RCS_SIZE":"LARGE","MEAN_ANOMALY":"294.0167","CLASSIFICATION_TYPE":"U","REF_FRAME":"TEME","OBJECT_NAME":"STARLINK-1643","COUNTRY_CODE":"US","ECCENTRICITY":"0.00019530","RA_OF_ASC_NODE":"253.3478","ARG_OF_PERICENTER":"66.1026","CENTER_NAME":"EARTH","TIME_SYSTEM":"UTC","FILE":"3276075","MEAN_MOTION":"15.06383864","NORAD_CAT_ID":"46136","EPOCH":"2022-01-17T21:23:15.589824","DECAY_DATE":null,"PERIAPSIS":"545.910","BSTAR":"-0.00016630000000","SEMIMAJOR_AXIS":"6925.398","OBJECT_TYPE":"PAYLOAD"},{"ECCENTRICITY":"0.00022910","RA_OF_ASC_NODE":"243.2508","ARG_OF_PERICENTER":"68.5403","CENTER_NAME":"EARTH","TIME_SYSTEM":"UTC","FILE":"3276075","MEAN_MOTION":"15.06386144","EPOCH":"2022-01-17T21:51:07.482528","NORAD_CAT_ID":"46137","DECAY_DATE":null,"PERIAPSIS":"545.669","BSTAR":"-0.00017347000000","SEMIMAJOR_AXIS":"6925.391","OBJECT_TYPE":"PAYLOAD","REV_AT_EPOCH":"7848","TLE_LINE1":"1 46137U 20057W   22017.91050327 -.00002864  00000-0 -17347-3 0  9991","LAUNCH_DATE":"2020-08-18","EPHEMERIS_TYPE":"0","MEAN_ELEMENT_THEORY":"SGP4","OBJECT_ID":"2020-057W","MEAN_MOTION_DDOT":"0.0000000000000","MEAN_MOTION_DOT":"-0.00002864","SITE":"AFETR","PERIOD":"95.593","INCLINATION":"53.0535","ELEMENT_SET_NO":"999","TLE_LINE2":"2 46137  53.0535 243.2508 0002291  68.5403 291.5830 15.06386144 78481","GP_ID":"194086855","APOAPSIS":"548.843","MEAN_ANOMALY":"291.5830","RCS_SIZE":"LARGE","CLASSIFICATION_TYPE":"U","REF_FRAME":"TEME","OBJECT_NAME":"STARLINK-1586","COUNTRY_CODE":"US"},{"RA_OF_ASC_NODE":"263.2655","ARG_OF_PERICENTER":"57.4589","CENTER_NAME":"EARTH","ECCENTRICITY":"0.00016580","MEAN_MOTION":"15.06392262","FILE":"3276075","TIME_SYSTEM":"UTC","DECAY_DATE":null,"NORAD_CAT_ID":"46138","EPOCH":"2022-01-17T21:48:28.109088","SEMIMAJOR_AXIS":"6925.372","OBJECT_TYPE":"PAYLOAD","BSTAR":"-0.00019170000000","PERIAPSIS":"546.089","MEAN_MOTION_DDOT":"0.0000000000000","MEAN_MOTION_DOT":"-0.00003135","LAUNCH_DATE":"2020-08-18","EPHEMERIS_TYPE":"0","MEAN_ELEMENT_THEORY":"SGP4","OBJECT_ID":"2020-057X","REV_AT_EPOCH":"7820","TLE_LINE1":"1 46138U 20057X   22017.90865867 -.00003135  00000-0 -19170-3 0  9992","TLE_LINE2":"2 46138  53.0533 263.2655 0001658  57.4589 302.6560 15.06392262 78205","GP_ID":"194086604","INCLINATION":"53.0533","PERIOD":"95.593","ELEMENT_SET_NO":"999","SITE":"AFETR","REF_FRAME":"TEME","MEAN_ANOMALY":"302.6560","RCS_SIZE":"LARGE","CLASSIFICATION_TYPE":"U","APOAPSIS":"548.386","COUNTRY_CODE":"US","OBJECT_NAME":"STARLINK-1590"},{"COUNTRY_CODE":"US","OBJECT_NAME":"STARLINK-1594","CLASSIFICATION_TYPE":"U","RCS_SIZE":"LARGE","MEAN_ANOMALY":"290.2727","REF_FRAME":"TEME","APOAPSIS":"548.797","GP_ID":"194085855","TLE_LINE2":"2 46140  53.0528 223.4501 0002257  69.8505 290.2727 15.06393378 80020","SITE":"AFETR","ELEMENT_SET_NO":"999","PERIOD":"95.593","INCLINATION":"53.0528","OBJECT_ID":"2020-057Z","MEAN_ELEMENT_THEORY":"SGP4","LAUNCH_DATE":"2020-08-18","EPHEMERIS_TYPE":"0","MEAN_MOTION_DOT":"-0.00001750","MEAN_MOTION_DDOT":"0.0000000000000","REV_AT_EPOCH":"8002","TLE_LINE1":"1 46140U 20057Z   22017.86811941 -.00001750  00000-0 -98575-4 0  9992","BSTAR":"-0.00009857500000","OBJECT_TYPE":"PAYLOAD","SEMIMAJOR_AXIS":"6925.369","PERIAPSIS":"545.671","DECAY_DATE":null,"NORAD_CAT_ID":"46140","EPOCH":"2022-01-17T20:50:05.517024","FILE":"3276075","MEAN_MOTION":"15.06393378","TIME_SYSTEM":"UTC","ECCENTRICITY":"0.00022570","CENTER_NAME":"EARTH","ARG_OF_PERICENTER":"69.8505","RA_OF_ASC_NODE":"223.4501"},{"DECAY_DATE":null,"EPOCH":"2022-01-17T20:18:14.012928","NORAD_CAT_ID":"46141","OBJECT_TYPE":"PAYLOAD","SEMIMAJOR_AXIS":"6925.366","BSTAR":"-0.00002589600000","PERIAPSIS":"545.787","CENTER_NAME":"EARTH","RA_OF_ASC_NODE":"223.5491","ARG_OF_PERICENTER":"77.8291","ECCENTRICITY":"0.00020850","MEAN_MOTION":"15.06394439","FILE":"3276075","TIME_SYSTEM":"UTC","REF_FRAME":"TEME","CLASSIFICATION_TYPE":"U","MEAN_ANOMALY":"282.2932","RCS_SIZE":"LARGE","APOAPSIS":"548.675","COUNTRY_CODE":"US","OBJECT_NAME":"STARLINK-1596","MEAN_MOTION_DOT":"-0.00000667","MEAN_MOTION_DDOT":"0.0000000000000","OBJECT_ID":"2020-057AA","EPHEMERIS_TYPE":"0","LAUNCH_DATE":"2020-08-18","MEAN_ELEMENT_THEORY":"SGP4","REV_AT_EPOCH":"7875","TLE_LINE1":"1 46141U 20057AA  22017.84599552 -.00000667  00000-0 -25896-4 0  9994","GP_ID":"194086105","TLE_LINE2":"2 46141  53.0515 223.5491 0002085  77.8291 282.2932 15.06394439 78751","PERIOD":"95.592","ELEMENT_SET_NO":"999","INCLINATION":"53.0515","SITE":"AFETR"},{"LAUNCH_DATE":"2020-08-18","EPHEMERIS_TYPE":"0","MEAN_ELEMENT_THEORY":"SGP4","OBJECT_ID":"2020-057AB","MEAN_MOTION_DDOT":"0.0000000000000","MEAN_MOTION_DOT":"-0.00006176","TLE_LINE1":"1 46142U 20057AB  22017.93076760 -.00006176  00000-0 -39631-3 0  9998","REV_AT_EPOCH":"7820","TLE_LINE2":"2 46142  53.0526 263.1765 0002164  63.9809 296.1403 15.06374283 78209","GP_ID":"194086355","SITE":"AFETR","PERIOD":"95.594","ELEMENT_SET_NO":"999","INCLINATION":"53.0526","RCS_SIZE":"LARGE","MEAN_ANOMALY":"296.1403","CLASSIFICATION_TYPE":"U","REF_FRAME":"TEME","APOAPSIS":"548.791","COUNTRY_CODE":"US","OBJECT_NAME":"STARLINK-1597","ECCENTRICITY":"0.00021640","ARG_OF_PERICENTER":"63.9809","RA_OF_ASC_NODE":"263.1765","CENTER_NAME":"EARTH","FILE":"3276075","MEAN_MOTION":"15.06374283","TIME_SYSTEM":"UTC","DECAY_DATE":null,"NORAD_CAT_ID":"46142","EPOCH":"2022-01-17T22:20:18.320640","BSTAR":"-0.00039631000000","SEMIMAJOR_AXIS":"6925.427","OBJECT_TYPE":"PAYLOAD","PERIAPSIS":"545.794"},{"ARG_OF_PERICENTER":"53.9729","RA_OF_ASC_NODE":"210.0840","CENTER_NAME":"EARTH","ECCENTRICITY":"0.00017000","TIME_SYSTEM":"UTC","MEAN_MOTION":"15.80593922","FILE":"3276075","NORAD_CAT_ID":"46143","EPOCH":"2022-01-17T19:22:44.813568","DECAY_DATE":null,"PERIAPSIS":"327.622","SEMIMAJOR_AXIS":"6706.897","OBJECT_TYPE":"PAYLOAD","BSTAR":"0.00313610000000","REV_AT_EPOCH":"7894","TLE_LINE1":"1 46143U 20057AC  22017.80746312  .00659531  00000-0  31361-2 0  9990","MEAN_MOTION_DDOT":"0.0000000000000","MEAN_MOTION_DOT":"0.00659531","LAUNCH_DATE":"2020-08-18","EPHEMERIS_TYPE":"0","MEAN_ELEMENT_THEORY":"SGP4","OBJECT_ID":"2020-057AC","PERIOD":"91.105","ELEMENT_SET_NO":"999","INCLINATION":"53.0513","SITE":"AFETR","TLE_LINE2":"2 46143  53.0513 210.0840 0001700  53.9729 306.1450 15.80593922 78946","GP_ID":"194087105","APOAPSIS":"329.902","REF_FRAME":"TEME","MEAN_ANOMALY":"306.1450","RCS_SIZE":"LARGE","CLASSIFICATION_TYPE":"U","OBJECT_NAME":"STARLINK-1599","COUNTRY_CODE":"US"},{"OBJECT_TYPE":"PAYLOAD","SEMIMAJOR_AXIS":"6925.381","BSTAR":"-0.00017655000000","PERIAPSIS":"545.848","DECAY_DATE":null,"EPOCH":"2022-01-17T21:29:53.160288","NORAD_CAT_ID":"46144","MEAN_MOTION":"15.06389302","FILE":"3276075","TIME_SYSTEM":"UTC","CENTER_NAME":"EARTH","RA_OF_ASC_NODE":"243.3292","ARG_OF_PERICENTER":"75.9033","ECCENTRICITY":"0.00020190","COUNTRY_CODE":"US","OBJECT_NAME":"STARLINK-1606","REF_FRAME":"TEME","CLASSIFICATION_TYPE":"U","MEAN_ANOMALY":"284.2180","RCS_SIZE":"LARGE","APOAPSIS":"548.645","GP_ID":"194085355","TLE_LINE2":"2 46144  53.0546 243.3292 0002019  75.9033 284.2180 15.06389302 66732","INCLINATION":"53.0546","PERIOD":"95.593","ELEMENT_SET_NO":"999","SITE":"AFETR","MEAN_MOTION_DOT":"-0.00002910","MEAN_MOTION_DDOT":"0.0000000000000","OBJECT_ID":"2020-057AD","LAUNCH_DATE":"2020-08-18","EPHEMERIS_TYPE":"0","MEAN_ELEMENT_THEORY":"SGP4","TLE_LINE1":"1 46144U 20057AD  22017.89575417 -.00002910  00000-0 -17655-3 0  9992","REV_AT_EPOCH":"6673"},{"ECCENTRICITY":"0.00016840","CENTER_NAME":"EARTH","ARG_OF_PERICENTER":"70.1054","RA_OF_ASC_NODE":"263.1170","TIME_SYSTEM":"UTC","FILE":"3276075","MEAN_MOTION":"15.06382286","EPOCH":"2022-01-17T22:36:14.013504","NORAD_CAT_ID":"46146","DECAY_DATE":null,"PERIAPSIS":"546.102","BSTAR":"-0.00020939000000","OBJECT_TYPE":"PAYLOAD","SEMIMAJOR_AXIS":"6925.403","TLE_LINE1":"1 46146U 20057AF  22017.94182886 -.00003398  00000-0 -20939-3 0  9994","REV_AT_EPOCH":"7821","OBJECT_ID":"2020-057AF","LAUNCH_DATE":"2020-08-18","MEAN_ELEMENT_THEORY":"SGP4","EPHEMERIS_TYPE":"0","MEAN_MOTION_DOT":"-0.00003398","MEAN_MOTION_DDOT":"0.0000000000000","SITE":"AFETR","ELEMENT_SET_NO":"999","PERIOD":"95.593","INCLINATION":"53.0531","GP_ID":"194085605","TLE_LINE2":"2 46146  53.0531 263.1170 0001684  70.1054 290.0116 15.06382286 78214","APOAPSIS":"548.434","CLASSIFICATION_TYPE":"U","MEAN_ANOMALY":"290.0116","RCS_SIZE":"LARGE","REF_FRAME":"TEME","OBJECT_NAME":"STARLINK-1608","COUNTRY_CODE":"US"},{"BSTAR":"-0.00015842000000","OBJECT_TYPE":"PAYLOAD","SEMIMAJOR_AXIS":"6925.400","PERIAPSIS":"546.072","DECAY_DATE":null,"NORAD_CAT_ID":"46147","EPOCH":"2022-01-17T22:09:42.020928","FILE":"3276075","MEAN_MOTION":"15.06383254","TIME_SYSTEM":"UTC","ECCENTRICITY":"0.00017230","CENTER_NAME":"EARTH","ARG_OF_PERICENTER":"76.7794","RA_OF_ASC_NODE":"263.1933","COUNTRY_CODE":"US","OBJECT_NAME":"STARLINK-1611","CLASSIFICATION_TYPE":"U","RCS_SIZE":"LARGE","MEAN_ANOMALY":"283.3387","REF_FRAME":"TEME","APOAPSIS":"548.458","GP_ID":"194086856","TLE_LINE2":"2 46147  53.0527 263.1933 0001723  76.7794 283.3387 15.06383254 79463","SITE":"AFETR","PERIOD":"95.593","ELEMENT_SET_NO":"999","INCLINATION":"53.0527","OBJECT_ID":"2020-057AG","MEAN_ELEMENT_THEORY":"SGP4","LAUNCH_DATE":"2020-08-18","EPHEMERIS_TYPE":"0","MEAN_MOTION_DOT":"-0.00002639","MEAN_MOTION_DDOT":"0.0000000000000","REV_AT_EPOCH":"7946","TLE_LINE1":"1 46147U 20057AG  22017.92340302 -.00002639  00000-0 -15842-3 0  9996"}];
